{
  "type": "FeatureCollection",
  "features": [
    {
      "type": "Feature",
      "properties": {
        "norad_id": 39773,
        "name": "EUTELSAT 3B",
        "group": "eutelsat",
        "lat": 0.02289219335190325,
        "lon": 155.97009187353214,
        "alt_km": 35781.43789609698,
        "timestamp": "2025-12-25T03:55:55.978889+00:00",
        "meta_object_name": "EUTELSAT 3B",
        "meta_object_id": "2014-030A",
        "meta_epoch": "2025-12-24T06:15:59.412384",
        "meta_mean_motion": 1.00272567,
        "meta_eccentricity": 0.00043423,
        "meta_inclination": 0.0612,
        "meta_ra_of_asc_node": 347.6458,
        "meta_arg_of_pericenter": 244.272,
        "meta_mean_anomaly": 318.2288,
        "meta_ephemeris_type": 0,
        "meta_classification_type": "U",
        "meta_norad_cat_id": 39773,
        "meta_element_set_no": 999,
        "meta_rev_at_epoch": 4231,
        "meta_bstar": 0,
        "meta_mean_motion_dot": 4.1e-07,
        "meta_mean_motion_ddot": 0,
        "tle_line1": "1 39773U 14030A   25358.26110431  .00000041  00000+0  00000+0 0  9991",
        "tle_line2": "2 39773   0.0612 347.6458 0004342 244.2720 318.2288  1.00272567 42313"
      },
      "geometry": {
        "type": "Point",
        "coordinates": [
          155.97009187353214,
          0.02289219335190325
        ]
      }
    },
    {
      "type": "Feature",
      "properties": {
        "norad_id": 40425,
        "name": "EUTELSAT 115 WEST B",
        "group": "eutelsat",
        "lat": -0.002355525990000651,
        "lon": 37.98188548625056,
        "alt_km": 35786.118682923465,
        "timestamp": "2025-12-25T03:55:55.978901+00:00",
        "meta_object_name": "EUTELSAT 115 WEST B",
        "meta_object_id": "2015-010B",
        "meta_epoch": "2025-12-24T05:59:38.935680",
        "meta_mean_motion": 1.00270958,
        "meta_eccentricity": 1.68e-05,
        "meta_inclination": 0.0109,
        "meta_ra_of_asc_node": 152.1321,
        "meta_arg_of_pericenter": 169.5884,
        "meta_mean_anomaly": 106.2964,
        "meta_ephemeris_type": 0,
        "meta_classification_type": "U",
        "meta_norad_cat_id": 40425,
        "meta_element_set_no": 999,
        "meta_rev_at_epoch": 3963,
        "meta_bstar": 0,
        "meta_mean_motion_dot": -4e-08,
        "meta_mean_motion_ddot": 0,
        "tle_line1": "1 40425U 15010B   25358.24975620 -.00000004  00000+0  00000+0 0  9993",
        "tle_line2": "2 40425   0.0109 152.1321 0000168 169.5884 106.2964  1.00270958 39639"
      },
      "geometry": {
        "type": "Point",
        "coordinates": [
          37.98188548625056,
          -0.002355525990000651
        ]
      }
    },
    {
      "type": "Feature",
      "properties": {
        "norad_id": 40875,
        "name": "EUTELSAT 8 WEST B",
        "group": "eutelsat",
        "lat": 0.05891659440453364,
        "lon": 144.86455666057947,
        "alt_km": 35797.552979951986,
        "timestamp": "2025-12-25T03:55:55.978914+00:00",
        "meta_object_name": "EUTELSAT 8 WEST B",
        "meta_object_id": "2015-039B",
        "meta_epoch": "2025-12-24T14:46:08.976288",
        "meta_mean_motion": 1.00271283,
        "meta_eccentricity": 0.0004229,
        "meta_inclination": 0.0641,
        "meta_ra_of_asc_node": 7.7175,
        "meta_arg_of_pericenter": 266.4342,
        "meta_mean_anomaly": 32.7715,
        "meta_ephemeris_type": 0,
        "meta_classification_type": "U",
        "meta_norad_cat_id": 40875,
        "meta_element_set_no": 999,
        "meta_rev_at_epoch": 3790,
        "meta_bstar": 0,
        "meta_mean_motion_dot": -4.5e-07,
        "meta_mean_motion_ddot": 0,
        "tle_line1": "1 40875U 15039B   25358.61538167 -.00000045  00000+0  00000+0 0  9990",
        "tle_line2": "2 40875   0.0641   7.7175 0004229 266.4342  32.7715  1.00271283 37906"
      },
      "geometry": {
        "type": "Point",
        "coordinates": [
          144.86455666057947,
          0.05891659440453364
        ]
      }
    },
    {
      "type": "Feature",
      "properties": {
        "norad_id": 41310,
        "name": "EUTELSAT 9B",
        "group": "eutelsat",
        "lat": 0.03221281461368209,
        "lon": 161.87468143638588,
        "alt_km": 35792.28970579459,
        "timestamp": "2025-12-25T03:55:55.978926+00:00",
        "meta_object_name": "EUTELSAT 9B",
        "meta_object_id": "2016-005A",
        "meta_epoch": "2025-12-24T06:17:44.244960",
        "meta_mean_motion": 1.00272813,
        "meta_eccentricity": 0.00045278,
        "meta_inclination": 0.023,
        "meta_ra_of_asc_node": 38.5865,
        "meta_arg_of_pericenter": 233.3148,
        "meta_mean_anomaly": 284.5874,
        "meta_ephemeris_type": 0,
        "meta_classification_type": "U",
        "meta_norad_cat_id": 41310,
        "meta_element_set_no": 999,
        "meta_rev_at_epoch": 3636,
        "meta_bstar": 0,
        "meta_mean_motion_dot": 8.3e-07,
        "meta_mean_motion_ddot": 0,
        "tle_line1": "1 41310U 16005A   25358.26231765  .00000083  00000+0  00000+0 0  9995",
        "tle_line2": "2 41310   0.0230  38.5865 0004527 233.3148 284.5874  1.00272813 36363"
      },
      "geometry": {
        "type": "Point",
        "coordinates": [
          161.87468143638588,
          0.03221281461368209
        ]
      }
    },
    {
      "type": "Feature",
      "properties": {
        "norad_id": 41382,
        "name": "EUTELSAT 65 WEST A",
        "group": "eutelsat",
        "lat": 0.06617576599977891,
        "lon": 87.72862353655836,
        "alt_km": 35795.55272671103,
        "timestamp": "2025-12-25T03:55:55.978938+00:00",
        "meta_object_name": "EUTELSAT 65 WEST A",
        "meta_object_id": "2016-014A",
        "meta_epoch": "2025-12-24T17:55:35.836320",
        "meta_mean_motion": 1.00272056,
        "meta_eccentricity": 0.0002273,
        "meta_inclination": 0.0487,
        "meta_ra_of_asc_node": 342.7403,
        "meta_arg_of_pericenter": 293.9459,
        "meta_mean_anomaly": 20.5499,
        "meta_ephemeris_type": 0,
        "meta_classification_type": "U",
        "meta_norad_cat_id": 41382,
        "meta_element_set_no": 999,
        "meta_rev_at_epoch": 3578,
        "meta_bstar": 0,
        "meta_mean_motion_dot": -2.55e-06,
        "meta_mean_motion_ddot": 0,
        "tle_line1": "1 41382U 16014A   25358.74694255 -.00000255  00000+0  00000+0 0  9996",
        "tle_line2": "2 41382   0.0487 342.7403 0002273 293.9459  20.5499  1.00272056 35782"
      },
      "geometry": {
        "type": "Point",
        "coordinates": [
          87.72862353655836,
          0.06617576599977891
        ]
      }
    },
    {
      "type": "Feature",
      "properties": {
        "norad_id": 41589,
        "name": "EUTELSAT 117 WEST B",
        "group": "eutelsat",
        "lat": -0.0015300002586833966,
        "lon": 35.88466414341267,
        "alt_km": 35786.75347055875,
        "timestamp": "2025-12-25T03:55:55.978950+00:00",
        "meta_object_name": "EUTELSAT 117 WEST B",
        "meta_object_id": "2016-038B",
        "meta_epoch": "2025-12-23T15:59:57.810912",
        "meta_mean_motion": 1.00269264,
        "meta_eccentricity": 2.679e-05,
        "meta_inclination": 0.0112,
        "meta_ra_of_asc_node": 151.1868,
        "meta_arg_of_pericenter": 153.5075,
        "meta_mean_anomaly": 270.7383,
        "meta_ephemeris_type": 0,
        "meta_classification_type": "U",
        "meta_norad_cat_id": 41589,
        "meta_element_set_no": 999,
        "meta_rev_at_epoch": 3490,
        "meta_bstar": 0,
        "meta_mean_motion_dot": 1e-07,
        "meta_mean_motion_ddot": 0,
        "tle_line1": "1 41589U 16038B   25357.66664133  .00000010  00000+0  00000+0 0  9991",
        "tle_line2": "2 41589   0.0112 151.1868 0000267 153.5075 270.7383  1.00269264 34900"
      },
      "geometry": {
        "type": "Point",
        "coordinates": [
          35.88466414341267,
          -0.0015300002586833966
        ]
      }
    },
    {
      "type": "Feature",
      "properties": {
        "norad_id": 42741,
        "name": "EUTELSAT 172B",
        "group": "eutelsat",
        "lat": -0.019920309053485952,
        "lon": -35.09565582272403,
        "alt_km": 35787.14358247049,
        "timestamp": "2025-12-25T03:55:55.978962+00:00",
        "meta_object_name": "EUTELSAT 172B",
        "meta_object_id": "2017-029B",
        "meta_epoch": "2025-12-24T17:20:31.693056",
        "meta_mean_motion": 1.00270234,
        "meta_eccentricity": 1.53e-05,
        "meta_inclination": 0.0315,
        "meta_ra_of_asc_node": 134.3733,
        "meta_arg_of_pericenter": 4.6509,
        "meta_mean_anomaly": 26.6031,
        "meta_ephemeris_type": 0,
        "meta_classification_type": "U",
        "meta_norad_cat_id": 42741,
        "meta_element_set_no": 999,
        "meta_rev_at_epoch": 3198,
        "meta_bstar": 0,
        "meta_mean_motion_dot": 1.5e-07,
        "meta_mean_motion_ddot": 0,
        "tle_line1": "1 42741U 17029B   25358.72258904  .00000015  00000+0  00000+0 0  9991",
        "tle_line2": "2 42741   0.0315 134.3733 0000153   4.6509  26.6031  1.00270234 31984"
      },
      "geometry": {
        "type": "Point",
        "coordinates": [
          -35.09565582272403,
          -0.019920309053485952
        ]
      }
    }
  ]
}